     2.100          NAVIGATION                              RINEX VERSION / TYPE
fic2rin                                 03/28/2015 00:21:02 PGM / RUN BY / DATE
                                                            END OF HEADER
20 15  3 27 16  0  0.0  .304081011564D-03  .397903932026D-11  .000000000000D+00
     .340000000000D+02  .102500000000D+02  .553273046043D-08 -.205006024892D+01
     .482425093651D-06  .573599198833D-02  .694207847118D-05  .515577314758D+04
     .489600000000D+06  .819563865662D-07  .168405823281D+00  .558793544769D-08
     .926757624524D+00  .222125000000D+03  .122442190074D+01 -.841142179805D-08
     .129648257513D-09  .100000000000D+01  .183700000000D+04  .000000000000D+00
     .240000000000D+01  .000000000000D+00 -.838190317154D-08  .340000000000D+02
     .482406000000D+06  .400000000000D+01
21 15  3 27 16  0  0.0 -.430623535067D-03 -.386535248253D-11  .000000000000D+00
     .780000000000D+02 -.185937500000D+02  .526021910924D-08 -.169111119494D+00
    -.847503542900D-06  .224306195742D-01  .889413058758D-05  .515358871460D+04
     .489600000000D+06 -.188127160072D-06 -.822423158529D+00  .309199094772D-06
     .933617232768D+00  .200343750000D+03 -.192904475858D+01 -.870321966689D-08
     .333585323739D-09  .100000000000D+01  .183700000000D+04  .000000000000D+00
     .340000000000D+01  .000000000000D+00 -.116415321827D-07  .780000000000D+02
     .482406000000D+06  .400000000000D+01
22 15  3 27 16  0  0.0  .333149917424D-03  .409272615798D-11  .000000000000D+00
     .640000000000D+02  .116875000000D+02  .563309178374D-08 -.167790339706D+01
     .664964318275D-06  .768827833235D-02  .648200511932D-05  .515369016075D+04
     .489600000000D+06  .132247805595D-06  .222248398841D+00  .614672899246D-07
     .923382593517D+00  .230343750000D+03 -.206193305067D+01 -.848606776450D-08
     .161792453591D-09  .100000000000D+01  .183700000000D+04  .000000000000D+00
     .340000000000D+01  .000000000000D+00 -.176951289177D-07  .640000000000D+02
     .482406000000D+06  .400000000000D+01
23 15  3 27 16  0  0.0 -.979201868176D-04 -.250111042988D-11  .000000000000D+00
     .101000000000D+03  .228437500000D+02  .491770484215D-08  .235363503309D+01
     .115670263767D-05  .990879849996D-02  .843033194542D-05  .515364601517D+04
     .489600000000D+06 -.217929482460D-06  .129179407812D+01 -.465661287308D-07
     .948798235038D+00  .214906250000D+03 -.270562584889D+01 -.811676666734D-08
    -.199651173416D-09  .100000000000D+01  .183700000000D+04  .000000000000D+00
     .340000000000D+01  .000000000000D+00 -.200234353542D-07  .101000000000D+03
     .482406000000D+06  .400000000000D+01
25 15  3 27 16  0  0.0 -.144708901644D-04 -.329691829393D-11  .000000000000D+00
     .760000000000D+02  .225000000000D+01  .428982154543D-08 -.355118901842D+00
     .279396772385D-07  .441555574071D-02  .443868339062D-05  .515370319176D+04
     .489600000000D+06 -.260770320892D-07 -.290283105052D+01  .670552253723D-07
     .978242581787D+00  .300250000000D+03  .677406428537D+00 -.823855745470D-08
    -.700029159024D-10  .100000000000D+01  .183700000000D+04  .000000000000D+00
     .240000000000D+01  .000000000000D+00  .512227416039D-08  .760000000000D+02
     .482406000000D+06  .400000000000D+01
27 15  3 27 16  0  0.0  .608148984611D-04  .261479726760D-11  .000000000000D+00
     .700000000000D+02 -.540000000000D+02  .421588989445D-08 -.260758393190D+01
    -.277347862720D-05  .222262763418D-02  .742264091969D-05  .515369223595D+04
     .489600000000D+06  .745058059692D-08 -.185839616550D+01  .353902578354D-07
     .966446615421D+00  .241656250000D+03  .142426449205D+00 -.798104672835D-08
     .914323799542D-10  .100000000000D+01  .183700000000D+04  .000000000000D+00
     .240000000000D+01  .000000000000D+00  .186264514923D-08  .700000000000D+02
     .482406000000D+06  .400000000000D+01
28 15  3 27 16  0  0.0  .428840983659D-03  .261479726760D-11  .000000000000D+00
     .660000000000D+02 -.126875000000D+02  .384051711581D-08 -.190030143340D+01
    -.474974513054D-06  .195857458748D-01  .474229454994D-05  .515369342995D+04
     .489600000000D+06  .325962901115D-06 -.283287005380D+01  .193715095520D-06
     .988846461561D+00  .301031250000D+03 -.166549972282D+01 -.774889420112D-08
    -.821462788651D-10  .100000000000D+01  .183700000000D+04  .000000000000D+00
     .340000000000D+01  .000000000000D+00 -.111758708954D-07  .660000000000D+02
     .482406000000D+06  .400000000000D+01
29 15  3 27 16  0  0.0  .600612256676D-03  .238742359215D-11  .000000000000D+00
     .200000000000D+02 -.748750000000D+02  .416160191885D-08  .482113108689D-01
    -.387616455555D-05  .139125634450D-02  .756606459618D-05  .515378981400D+04
     .489600000000D+06  .651925802231D-07 -.180166920118D+01 -.707805156708D-07
     .972380256501D+00  .241093750000D+03 -.723570370925D+00 -.796497463031D-08
    -.385730352932D-10  .100000000000D+01  .183700000000D+04  .000000000000D+00
     .240000000000D+01  .000000000000D+00 -.977888703346D-08  .200000000000D+02
     .482406000000D+06  .400000000000D+01
30 15  3 27 16  0  0.0 -.768136233091D-04  .306954461848D-11  .000000000000D+00
     .830000000000D+02  .592500000000D+02  .459769151231D-08  .989710225449D+00
     .298395752907D-05  .115219561849D-02  .662915408611D-05  .515376365471D+04
     .489600000000D+06  .204890966415D-07  .240911786166D+01 -.130385160446D-07
     .956496484478D+00  .245125000000D+03  .285943331067D+01 -.822998566908D-08
    -.108575951196D-09  .100000000000D+01  .183700000000D+04  .000000000000D+00
     .240000000000D+01  .000000000000D+00  .325962901115D-08  .830000000000D+02
     .482406000000D+06  .400000000000D+01
31 15  3 27 16  0  0.0  .320119783282D-03 -.909494701773D-12  .000000000000D+00
     .500000000000D+02  .473750000000D+02  .422339020687D-08  .683027635665D+00
     .233575701714D-05  .819837069139D-02  .739470124245D-05  .515375283241D+04
     .489600000000D+06  .115483999252D-06  .236641111507D+01 -.111758708954D-06
     .975649423440D+00  .242000000000D+03 -.527686245759D+00 -.801854829044D-08
    -.104647216119D-09  .100000000000D+01  .183700000000D+04  .000000000000D+00
     .240000000000D+01  .000000000000D+00 -.135041773319D-07  .500000000000D+02
     .482406000000D+06  .400000000000D+01
32 15  3 27 16  0  0.0 -.190892722458D-03  .943600753089D-11  .000000000000D+00
     .470000000000D+02  .896875000000D+01  .512878506306D-08  .133669443380D+01
     .361353158951D-06  .112724559149D-01  .716745853424D-05  .515379671669D+04
     .489600000000D+06  .689178705215D-07  .321620424347D+00  .147148966789D-06
     .947440496380D+00  .235687500000D+03  .264904196380D-01 -.833499004293D-08
    -.117862052285D-09  .100000000000D+01  .183700000000D+04  .000000000000D+00
     .240000000000D+01  .000000000000D+00 -.372529029846D-08  .470000000000D+02
     .482406000000D+06  .400000000000D+01
23 15  3 27 15 59 44.0 -.979197211564D-04 -.250111042988D-11  .000000000000D+00
     .700000000000D+01  .228437500000D+02  .491770484215D-08  .235130128669D+01
     .115670263767D-05  .990879640449D-02  .843033194542D-05  .515364601135D+04
     .489584000000D+06 -.217929482460D-06  .129179424490D+01 -.465661287308D-07
     .948798239426D+00  .214906250000D+03 -.270562586644D+01 -.811676666734D-08
    -.199651173416D-09  .100000000000D+01  .183700000000D+04  .000000000000D+00
     .240000000000D+01  .000000000000D+00 -.200234353542D-07  .700000000000D+01
     .483186000000D+06  .400000000000D+01
30 15  3 27 15 59 44.0 -.768145546317D-04  .306954461848D-11  .000000000000D+00
     .140000000000D+02  .592500000000D+02  .459733435457D-08  .987372732518D+00
     .298395752907D-05  .115220271982D-02  .662915408611D-05  .515376364899D+04
     .489584000000D+06  .204890966415D-07  .240911800210D+01 -.130385160446D-07
     .956496499107D+00  .245125000000D+03  .285943724007D+01 -.822998566908D-08
    -.108575951196D-09  .100000000000D+01  .183700000000D+04  .000000000000D+00
     .240000000000D+01  .000000000000D+00  .325962901115D-08  .140000000000D+02
     .484836000000D+06  .400000000000D+01
25 15  3 27 15 59 44.0 -.144704245031D-04 -.329691829393D-11  .000000000000D+00
     .200000000000D+01  .225000000000D+01  .428982154543D-08 -.357453942923D+00
     .279396772385D-07  .441555178259D-02  .443868339062D-05  .515370319366D+04
     .489584000000D+06 -.260770320892D-07 -.290283091886D+01  .670552253723D-07
     .978242571547D+00  .300250000000D+03  .677407781736D+00 -.823855745470D-08
    -.700029159024D-10  .100000000000D+01  .183700000000D+04  .000000000000D+00
     .240000000000D+01  .000000000000D+00  .512227416039D-08  .200000000000D+01
     .486936000000D+06  .400000000000D+01
11 15  3 27 15 59 44.0 -.567249022424D-03 -.261479726760D-11  .000000000000D+00
     .160000000000D+02 -.304375000000D+02  .616632828090D-08  .888950984948D+00
    -.168755650520D-05  .156521179015D-01  .856444239616D-05  .515373047638D+04
     .489584000000D+06 -.242143869400D-06 -.114762081842D+01 -.875443220139D-07
     .892487639144D+00  .181031250000D+03  .138968739189D+01 -.909537885904D-08
     .138934358602D-09  .100000000000D+01  .183700000000D+04  .000000000000D+00
     .240000000000D+01  .000000000000D+00 -.121071934700D-07  .160000000000D+02
     .488346000000D+06  .400000000000D+01
28 15  3 27 15 59 44.0  .428847037256D-03  .261479726760D-11  .000000000000D+00
     .100000000000D+02 -.126875000000D+02  .384051711581D-08 -.190263501741D+01
    -.474974513054D-06  .195857415674D-01  .474229454994D-05  .515369344139D+04
     .489584000000D+06  .325962901115D-06 -.283286990897D+01  .193715095520D-06
     .988846448395D+00  .301031250000D+03 -.166549991300D+01 -.774889420112D-08
    -.821462788651D-10  .100000000000D+01  .183700000000D+04  .000000000000D+00
     .240000000000D+01  .000000000000D+00 -.111758708954D-07  .100000000000D+02
     .489246000000D+06  .400000000000D+01
